{
  "type": "FeatureCollection",
  "features": [
    {
      "type": "Feature",
      "properties": {
        "norad_id": 34121,
        "name": "COSMOS 2251 DEB",
        "group": "cosmos-2251-debris",
        "lat": -73.97288955834185,
        "lon": -6.701342550929391,
        "alt_km": 763.1387896239312,
        "timestamp": "2025-12-19T14:48:36.641848+00:00",
        "meta_object_name": "COSMOS 2251 DEB",
        "meta_object_id": "1993-036KS",
        "meta_epoch": "2025-12-19T00:15:27.283680",
        "meta_mean_motion": 13.91951172,
        "meta_eccentricity": 0.0240651,
        "meta_inclination": 73.9924,
        "meta_ra_of_asc_node": 86.4238,
        "meta_arg_of_pericenter": 290.5533,
        "meta_mean_anomaly": 182.4866,
        "meta_ephemeris_type": 0,
        "meta_classification_type": "U",
        "meta_norad_cat_id": 34121,
        "meta_element_set_no": 999,
        "meta_rev_at_epoch": 85212,
        "meta_bstar": 0.00093864004,
        "meta_mean_motion_dot": 1.491e-05,
        "meta_mean_motion_ddot": 0,
        "tle_line1": "1 34121U 93036KS  25353.01073245  .00001491  00000+0  93864-3 0  9999",
        "tle_line2": "2 34121  73.9924  86.4238 0240651 290.5533 182.4866 13.91951172852125"
      },
      "geometry": {
        "type": "Point",
        "coordinates": [
          -6.701342550929391,
          -73.97288955834185
        ]
      }
    },
    {
      "type": "Feature",
      "properties": {
        "norad_id": 34122,
        "name": "COSMOS 2251 DEB",
        "group": "cosmos-2251-debris",
        "lat": 9.365569287695598,
        "lon": -77.30381075591724,
        "alt_km": 736.8242350853634,
        "timestamp": "2025-12-19T14:48:36.641858+00:00",
        "meta_object_name": "COSMOS 2251 DEB",
        "meta_object_id": "1993-036KT",
        "meta_epoch": "2025-12-19T07:35:12.842304",
        "meta_mean_motion": 14.6512277,
        "meta_eccentricity": 0.00846957,
        "meta_inclination": 74.0361,
        "meta_ra_of_asc_node": 105.9811,
        "meta_arg_of_pericenter": 0.9715,
        "meta_mean_anomaly": 22.2041,
        "meta_ephemeris_type": 0,
        "meta_classification_type": "U",
        "meta_norad_cat_id": 34122,
        "meta_element_set_no": 999,
        "meta_rev_at_epoch": 88781,
        "meta_bstar": 0.00071318791,
        "meta_mean_motion_dot": 4.009e-05,
        "meta_mean_motion_ddot": 0,
        "tle_line1": "1 34122U 93036KT  25353.31612086  .00004009  00000+0  71319-3 0  9994",
        "tle_line2": "2 34122  74.0361 105.9811 0084695   0.9715  22.2041 14.65122770887812"
      },
      "geometry": {
        "type": "Point",
        "coordinates": [
          -77.30381075591724,
          9.365569287695598
        ]
      }
    },
    {
      "type": "Feature",
      "properties": {
        "norad_id": 34127,
        "name": "COSMOS 2251 DEB",
        "group": "cosmos-2251-debris",
        "lat": -26.03107211371689,
        "lon": 23.474487394445912,
        "alt_km": 809.1527756459254,
        "timestamp": "2025-12-19T14:48:36.641869+00:00",
        "meta_object_name": "COSMOS 2251 DEB",
        "meta_object_id": "1993-036KY",
        "meta_epoch": "2025-12-19T03:29:03.083712",
        "meta_mean_motion": 14.31601288,
        "meta_eccentricity": 0.01149346,
        "meta_inclination": 74.1792,
        "meta_ra_of_asc_node": 32.2872,
        "meta_arg_of_pericenter": 231.0589,
        "meta_mean_anomaly": 189.4593,
        "meta_ephemeris_type": 0,
        "meta_classification_type": "U",
        "meta_norad_cat_id": 34127,
        "meta_element_set_no": 999,
        "meta_rev_at_epoch": 86863,
        "meta_bstar": 0.0012183219,
        "meta_mean_motion_dot": 3.463e-05,
        "meta_mean_motion_ddot": 0,
        "tle_line1": "1 34127U 93036KY  25353.14517458  .00003463  00000+0  12183-2 0  9993",
        "tle_line2": "2 34127  74.1792  32.2872 0114934 231.0589 189.4593 14.31601288868637"
      },
      "geometry": {
        "type": "Point",
        "coordinates": [
          23.474487394445912,
          -26.03107211371689
        ]
      }
    },
    {
      "type": "Feature",
      "properties": {
        "norad_id": 34128,
        "name": "COSMOS 2251 DEB",
        "group": "cosmos-2251-debris",
        "lat": 69.62204346970252,
        "lon": 52.10518781192431,
        "alt_km": 548.9919047695403,
        "timestamp": "2025-12-19T14:48:36.641879+00:00",
        "meta_object_name": "COSMOS 2251 DEB",
        "meta_object_id": "1993-036KZ",
        "meta_epoch": "2025-12-19T05:27:35.816832",
        "meta_mean_motion": 15.0140555,
        "meta_eccentricity": 0.0026044,
        "meta_inclination": 73.9993,
        "meta_ra_of_asc_node": 283.4799,
        "meta_arg_of_pericenter": 34.3295,
        "meta_mean_anomaly": 123.258,
        "meta_ephemeris_type": 0,
        "meta_classification_type": "U",
        "meta_norad_cat_id": 34128,
        "meta_element_set_no": 999,
        "meta_rev_at_epoch": 89264,
        "meta_bstar": 0.0010951043,
        "meta_mean_motion_dot": 0.00014222,
        "meta_mean_motion_ddot": 0,
        "tle_line1": "1 34128U 93036KZ  25353.22749788  .00014222  00000+0  10951-2 0  9992",
        "tle_line2": "2 34128  73.9993 283.4799 0026044  34.3295 123.2580 15.01405550892640"
      },
      "geometry": {
        "type": "Point",
        "coordinates": [
          52.10518781192431,
          69.62204346970252
        ]
      }
    },
    {
      "type": "Feature",
      "properties": {
        "norad_id": 34129,
        "name": "COSMOS 2251 DEB",
        "group": "cosmos-2251-debris",
        "lat": 65.19928001682024,
        "lon": 107.7853528443683,
        "alt_km": 625.3658205417214,
        "timestamp": "2025-12-19T14:48:36.641889+00:00",
        "meta_object_name": "COSMOS 2251 DEB",
        "meta_object_id": "1993-036LA",
        "meta_epoch": "2025-12-18T09:02:11.415264",
        "meta_mean_motion": 14.75834585,
        "meta_eccentricity": 0.00331651,
        "meta_inclination": 74.0348,
        "meta_ra_of_asc_node": 328.4951,
        "meta_arg_of_pericenter": 48.1918,
        "meta_mean_anomaly": 312.208,
        "meta_ephemeris_type": 0,
        "meta_classification_type": "U",
        "meta_norad_cat_id": 34129,
        "meta_element_set_no": 999,
        "meta_rev_at_epoch": 61381,
        "meta_bstar": 0.0011762776,
        "meta_mean_motion_dot": 8.117e-05,
        "meta_mean_motion_ddot": 0,
        "tle_line1": "1 34129U 93036LA  25352.37652101  .00008117  00000+0  11763-2 0  9998",
        "tle_line2": "2 34129  74.0348 328.4951 0033165  48.1918 312.2080 14.75834585613813"
      },
      "geometry": {
        "type": "Point",
        "coordinates": [
          107.7853528443683,
          65.19928001682024
        ]
      }
    },
    {
      "type": "Feature",
      "properties": {
        "norad_id": 34136,
        "name": "COSMOS 2251 DEB",
        "group": "cosmos-2251-debris",
        "lat": 8.765831137977052,
        "lon": 31.601667473754993,
        "alt_km": 676.6160946135715,
        "timestamp": "2025-12-19T14:48:36.641900+00:00",
        "meta_object_name": "COSMOS 2251 DEB",
        "meta_object_id": "1993-036LH",
        "meta_epoch": "2025-12-19T05:20:48.293088",
        "meta_mean_motion": 14.80120691,
        "meta_eccentricity": 0.00853049,
        "meta_inclination": 74.0203,
        "meta_ra_of_asc_node": 29.8465,
        "meta_arg_of_pericenter": 151.0701,
        "meta_mean_anomaly": 278.6091,
        "meta_ephemeris_type": 0,
        "meta_classification_type": "U",
        "meta_norad_cat_id": 34136,
        "meta_element_set_no": 999,
        "meta_rev_at_epoch": 90106,
        "meta_bstar": 0.00026731466,
        "meta_mean_motion_dot": 2.121e-05,
        "meta_mean_motion_ddot": 0,
        "tle_line1": "1 34136U 93036LH  25353.22278117  .00002121  00000+0  26731-3 0  9993",
        "tle_line2": "2 34136  74.0203  29.8465 0085304 151.0701 278.6091 14.80120691901065"
      },
      "geometry": {
        "type": "Point",
        "coordinates": [
          31.601667473754993,
          8.765831137977052
        ]
      }
    },
    {
      "type": "Feature",
      "properties": {
        "norad_id": 34139,
        "name": "COSMOS 2251 DEB",
        "group": "cosmos-2251-debris",
        "lat": -63.36998955806185,
        "lon": -153.8712166813531,
        "alt_km": 674.3260975487547,
        "timestamp": "2025-12-19T14:48:36.641911+00:00",
        "meta_object_name": "COSMOS 2251 DEB",
        "meta_object_id": "1993-036LL",
        "meta_epoch": "2025-12-18T16:11:13.051968",
        "meta_mean_motion": 14.59140035,
        "meta_eccentricity": 0.00425473,
        "meta_inclination": 74.0309,
        "meta_ra_of_asc_node": 242.7506,
        "meta_arg_of_pericenter": 312.858,
        "meta_mean_anomaly": 69.3893,
        "meta_ephemeris_type": 0,
        "meta_classification_type": "U",
        "meta_norad_cat_id": 34139,
        "meta_element_set_no": 999,
        "meta_rev_at_epoch": 88236,
        "meta_bstar": 0.00099611109,
        "meta_mean_motion_dot": 4.723e-05,
        "meta_mean_motion_ddot": 0,
        "tle_line1": "1 34139U 93036LL  25352.67445662  .00004723  00000+0  99611-3 0  9992",
        "tle_line2": "2 34139  74.0309 242.7506 0042547 312.8580  69.3893 14.59140035882367"
      },
      "geometry": {
        "type": "Point",
        "coordinates": [
          -153.8712166813531,
          -63.36998955806185
        ]
      }
    }
  ]
}